IRIDIUM 136             
1 42962U 17061H   24056.86845613  .00000130  00000+0  39322-4 0  9992
2 42962  86.4004  17.2424 0002001  82.3402 277.8021 14.34217421334106
